<?xml version="1.0" encoding="UTF-8"?>
<ndm xmlns:xsi="http://www.w3.org/2001/XMLSchema-instance" xsi:noNamespaceSchemaLocation="https://sanaregistry.org/r/ndmxml_unqualified/ndmxml-2.0.0-master-2.0.xsd">
<omm id="CCSDS_OMM_VERS" version="2.0">
<header><CREATION_DATE/><ORIGINATOR/></header><body><segment><metadata><OBJECT_NAME>ONEWEB-0560</OBJECT_NAME><OBJECT_ID>2023-004F</OBJECT_ID><CENTER_NAME>EARTH</CENTER_NAME><REF_FRAME>TEME</REF_FRAME><TIME_SYSTEM>UTC</TIME_SYSTEM><MEAN_ELEMENT_THEORY>SGP4</MEAN_ELEMENT_THEORY></metadata><data><meanElements><EPOCH>2025-02-05T20:14:32.676000</EPOCH><MEAN_MOTION>13.18685547</MEAN_MOTION><ECCENTRICITY>.0002219</ECCENTRICITY><INCLINATION>87.9057</INCLINATION><RA_OF_ASC_NODE>74.2135</RA_OF_ASC_NODE><ARG_OF_PERICENTER>100.8534</ARG_OF_PERICENTER><MEAN_ANOMALY>259.2848</MEAN_ANOMALY></meanElements><tleParameters><EPHEMERIS_TYPE>0</EPHEMERIS_TYPE><CLASSIFICATION_TYPE>U</CLASSIFICATION_TYPE><NORAD_CAT_ID>55145</NORAD_CAT_ID><ELEMENT_SET_NO>999</ELEMENT_SET_NO><REV_AT_EPOCH>10429</REV_AT_EPOCH><BSTAR>.12298E-3</BSTAR><MEAN_MOTION_DOT>.61E-6</MEAN_MOTION_DOT><MEAN_MOTION_DDOT>0</MEAN_MOTION_DDOT></tleParameters></data></segment></body></omm>
<omm id="CCSDS_OMM_VERS" version="2.0">
<header><CREATION_DATE/><ORIGINATOR/></header><body><segment><metadata><OBJECT_NAME>ONEWEB-0565</OBJECT_NAME><OBJECT_ID>2023-004G</OBJECT_ID><CENTER_NAME>EARTH</CENTER_NAME><REF_FRAME>TEME</REF_FRAME><TIME_SYSTEM>UTC</TIME_SYSTEM><MEAN_ELEMENT_THEORY>SGP4</MEAN_ELEMENT_THEORY></metadata><data><meanElements><EPOCH>2025-02-05T20:05:26.424960</EPOCH><MEAN_MOTION>13.18685112</MEAN_MOTION><ECCENTRICITY>.0002422</ECCENTRICITY><INCLINATION>87.9053</INCLINATION><RA_OF_ASC_NODE>74.2816</RA_OF_ASC_NODE><ARG_OF_PERICENTER>88.1167</ARG_OF_PERICENTER><MEAN_ANOMALY>272.0242</MEAN_ANOMALY></meanElements><tleParameters><EPHEMERIS_TYPE>0</EPHEMERIS_TYPE><CLASSIFICATION_TYPE>U</CLASSIFICATION_TYPE><NORAD_CAT_ID>55146</NORAD_CAT_ID><ELEMENT_SET_NO>999</ELEMENT_SET_NO><REV_AT_EPOCH>10428</REV_AT_EPOCH><BSTAR>.6596E-4</BSTAR><MEAN_MOTION_DOT>.39E-6</MEAN_MOTION_DOT><MEAN_MOTION_DDOT>0</MEAN_MOTION_DDOT></tleParameters></data></segment></body></omm>
<omm id="CCSDS_OMM_VERS" version="2.0">
<header><CREATION_DATE/><ORIGINATOR/></header><body><segment><metadata><OBJECT_NAME>ONEWEB-0567</OBJECT_NAME><OBJECT_ID>2023-004H</OBJECT_ID><CENTER_NAME>EARTH</CENTER_NAME><REF_FRAME>TEME</REF_FRAME><TIME_SYSTEM>UTC</TIME_SYSTEM><MEAN_ELEMENT_THEORY>SGP4</MEAN_ELEMENT_THEORY></metadata><data><meanElements><EPOCH>2025-02-05T12:39:16.901280</EPOCH><MEAN_MOTION>13.18685578</MEAN_MOTION><ECCENTRICITY>.00024</ECCENTRICITY><INCLINATION>87.9054</INCLINATION><RA_OF_ASC_NODE>74.2986</RA_OF_ASC_NODE><ARG_OF_PERICENTER>95.6510</ARG_OF_PERICENTER><MEAN_ANOMALY>264.4896</MEAN_ANOMALY></meanElements><tleParameters><EPHEMERIS_TYPE>0</EPHEMERIS_TYPE><CLASSIFICATION_TYPE>U</CLASSIFICATION_TYPE><NORAD_CAT_ID>55147</NORAD_CAT_ID><ELEMENT_SET_NO>999</ELEMENT_SET_NO><REV_AT_EPOCH>10424</REV_AT_EPOCH><BSTAR>.91247E-4</BSTAR><MEAN_MOTION_DOT>.49E-6</MEAN_MOTION_DOT><MEAN_MOTION_DDOT>0</MEAN_MOTION_DDOT></tleParameters></data></segment></body></omm>
<omm id="CCSDS_OMM_VERS" version="2.0">
<header><CREATION_DATE/><ORIGINATOR/></header><body><segment><metadata><OBJECT_NAME>ONEWEB-0569</OBJECT_NAME><OBJECT_ID>2023-004J</OBJECT_ID><CENTER_NAME>EARTH</CENTER_NAME><REF_FRAME>TEME</REF_FRAME><TIME_SYSTEM>UTC</TIME_SYSTEM><MEAN_ELEMENT_THEORY>SGP4</MEAN_ELEMENT_THEORY></metadata><data><meanElements><EPOCH>2025-02-05T18:52:18.831648</EPOCH><MEAN_MOTION>13.13471162</MEAN_MOTION><ECCENTRICITY>.0002875</ECCENTRICITY><INCLINATION>87.8879</INCLINATION><RA_OF_ASC_NODE>58.8949</RA_OF_ASC_NODE><ARG_OF_PERICENTER>99.5593</ARG_OF_PERICENTER><MEAN_ANOMALY>260.5861</MEAN_ANOMALY></meanElements><tleParameters><EPHEMERIS_TYPE>0</EPHEMERIS_TYPE><CLASSIFICATION_TYPE>U</CLASSIFICATION_TYPE><NORAD_CAT_ID>55148</NORAD_CAT_ID><ELEMENT_SET_NO>999</ELEMENT_SET_NO><REV_AT_EPOCH>10501</REV_AT_EPOCH><BSTAR>-.38401E-3</BSTAR><MEAN_MOTION_DOT>-.127E-5</MEAN_MOTION_DOT><MEAN_MOTION_DDOT>0</MEAN_MOTION_DDOT></tleParameters></data></segment></body></omm>
<omm id="CCSDS_OMM_VERS" version="2.0">
<header><CREATION_DATE/><ORIGINATOR/></header><body><segment><metadata><OBJECT_NAME>ONEWEB-0570</OBJECT_NAME><OBJECT_ID>2023-004K</OBJECT_ID><CENTER_NAME>EARTH</CENTER_NAME><REF_FRAME>TEME</REF_FRAME><TIME_SYSTEM>UTC</TIME_SYSTEM><MEAN_ELEMENT_THEORY>SGP4</MEAN_ELEMENT_THEORY></metadata><data><meanElements><EPOCH>2025-02-05T12:21:03.605184</EPOCH><MEAN_MOTION>13.18685789</MEAN_MOTION><ECCENTRICITY>.0002072</ECCENTRICITY><INCLINATION>87.9058</INCLINATION><RA_OF_ASC_NODE>74.3026</RA_OF_ASC_NODE><ARG_OF_PERICENTER>75.9536</ARG_OF_PERICENTER><MEAN_ANOMALY>284.1826</MEAN_ANOMALY></meanElements><tleParameters><EPHEMERIS_TYPE>0</EPHEMERIS_TYPE><CLASSIFICATION_TYPE>U</CLASSIFICATION_TYPE><NORAD_CAT_ID>55149</NORAD_CAT_ID><ELEMENT_SET_NO>999</ELEMENT_SET_NO><REV_AT_EPOCH>10423</REV_AT_EPOCH><BSTAR>.69132E-4</BSTAR><MEAN_MOTION_DOT>.4E-6</MEAN_MOTION_DOT><MEAN_MOTION_DDOT>0</MEAN_MOTION_DDOT></tleParameters></data></segment></body></omm>
<omm id="CCSDS_OMM_VERS" version="2.0">
<header><CREATION_DATE/><ORIGINATOR/></header><body><segment><metadata><OBJECT_NAME>ONEWEB-0571</OBJECT_NAME><OBJECT_ID>2023-004L</OBJECT_ID><CENTER_NAME>EARTH</CENTER_NAME><REF_FRAME>TEME</REF_FRAME><TIME_SYSTEM>UTC</TIME_SYSTEM><MEAN_ELEMENT_THEORY>SGP4</MEAN_ELEMENT_THEORY></metadata><data><meanElements><EPOCH>2025-02-05T19:29:00.305376</EPOCH><MEAN_MOTION>13.18685729</MEAN_MOTION><ECCENTRICITY>.0003005</ECCENTRICITY><INCLINATION>87.9059</INCLINATION><RA_OF_ASC_NODE>74.2513</RA_OF_ASC_NODE><ARG_OF_PERICENTER>87.6059</ARG_OF_PERICENTER><MEAN_ANOMALY>272.5417</MEAN_ANOMALY></meanElements><tleParameters><EPHEMERIS_TYPE>0</EPHEMERIS_TYPE><CLASSIFICATION_TYPE>U</CLASSIFICATION_TYPE><NORAD_CAT_ID>55150</NORAD_CAT_ID><ELEMENT_SET_NO>999</ELEMENT_SET_NO><REV_AT_EPOCH>10428</REV_AT_EPOCH><BSTAR>.17212E-3</BSTAR><MEAN_MOTION_DOT>.81E-6</MEAN_MOTION_DOT><MEAN_MOTION_DDOT>0</MEAN_MOTION_DDOT></tleParameters></data></segment></body></omm>
<omm id="CCSDS_OMM_VERS" version="2.0">
<header><CREATION_DATE/><ORIGINATOR/></header><body><segment><metadata><OBJECT_NAME>ONEWEB-0572</OBJECT_NAME><OBJECT_ID>2023-004M</OBJECT_ID><CENTER_NAME>EARTH</CENTER_NAME><REF_FRAME>TEME</REF_FRAME><TIME_SYSTEM>UTC</TIME_SYSTEM><MEAN_ELEMENT_THEORY>SGP4</MEAN_ELEMENT_THEORY></metadata><data><meanElements><EPOCH>2025-02-05T10:35:16.954944</EPOCH><MEAN_MOTION>13.17649977</MEAN_MOTION><ECCENTRICITY>.0002029</ECCENTRICITY><INCLINATION>87.9069</INCLINATION><RA_OF_ASC_NODE>104.8370</RA_OF_ASC_NODE><ARG_OF_PERICENTER>95.0271</ARG_OF_PERICENTER><MEAN_ANOMALY>265.1092</MEAN_ANOMALY></meanElements><tleParameters><EPHEMERIS_TYPE>0</EPHEMERIS_TYPE><CLASSIFICATION_TYPE>U</CLASSIFICATION_TYPE><NORAD_CAT_ID>55151</NORAD_CAT_ID><ELEMENT_SET_NO>999</ELEMENT_SET_NO><REV_AT_EPOCH>10206</REV_AT_EPOCH><BSTAR>.78385E-4</BSTAR><MEAN_MOTION_DOT>.43E-6</MEAN_MOTION_DOT><MEAN_MOTION_DDOT>0</MEAN_MOTION_DDOT></tleParameters></data></segment></body></omm>
<omm id="CCSDS_OMM_VERS" version="2.0">
<header><CREATION_DATE/><ORIGINATOR/></header><body><segment><metadata><OBJECT_NAME>ONEWEB-0573</OBJECT_NAME><OBJECT_ID>2023-004N</OBJECT_ID><CENTER_NAME>EARTH</CENTER_NAME><REF_FRAME>TEME</REF_FRAME><TIME_SYSTEM>UTC</TIME_SYSTEM><MEAN_ELEMENT_THEORY>SGP4</MEAN_ELEMENT_THEORY></metadata><data><meanElements><EPOCH>2025-02-05T19:19:54.615072</EPOCH><MEAN_MOTION>13.18686255</MEAN_MOTION><ECCENTRICITY>.0002674</ECCENTRICITY><INCLINATION>87.9055</INCLINATION><RA_OF_ASC_NODE>74.2623</RA_OF_ASC_NODE><ARG_OF_PERICENTER>81.1746</ARG_OF_PERICENTER><MEAN_ANOMALY>278.9688</MEAN_ANOMALY></meanElements><tleParameters><EPHEMERIS_TYPE>0</EPHEMERIS_TYPE><CLASSIFICATION_TYPE>U</CLASSIFICATION_TYPE><NORAD_CAT_ID>55152</NORAD_CAT_ID><ELEMENT_SET_NO>999</ELEMENT_SET_NO><REV_AT_EPOCH>10427</REV_AT_EPOCH><BSTAR>.6195E-3</BSTAR><MEAN_MOTION_DOT>.257E-5</MEAN_MOTION_DOT><MEAN_MOTION_DDOT>0</MEAN_MOTION_DDOT></tleParameters></data></segment></body></omm>

</ndm>
