ONEWEB-0560             
1 55145U 23004F   25036.84343375  .00000061  00000+0  12298-3 0  9993
2 55145  87.9057  74.2135 0002219 100.8534 259.2848 13.18685547104297
ONEWEB-0565             
1 55146U 23004G   25036.83711140  .00000039  00000+0  65960-4 0  9992
2 55146  87.9053  74.2816 0002422  88.1167 272.0242 13.18685112104284
ONEWEB-0567             
1 55147U 23004H   25036.52727895  .00000049  00000+0  91247-4 0  9991
2 55147  87.9054  74.2986 0002400  95.6510 264.4896 13.18685578104247
ONEWEB-0569             
1 55148U 23004J   25036.78632907 -.00000127  00000+0 -38401-3 0  9990
2 55148  87.8879  58.8949 0002875  99.5593 260.5861 13.13471162105011
ONEWEB-0570             
1 55149U 23004K   25036.51462506  .00000040  00000+0  69132-4 0  9996
2 55149  87.9058  74.3026 0002072  75.9536 284.1826 13.18685789104238
ONEWEB-0571             
1 55150U 23004L   25036.81180909  .00000081  00000+0  17212-3 0  9991
2 55150  87.9059  74.2513 0003005  87.6059 272.5417 13.18685729104284
ONEWEB-0572             
1 55151U 23004M   25036.44116846  .00000043  00000+0  78385-4 0  9997
2 55151  87.9069 104.8370 0002029  95.0271 265.1092 13.17649977102066
ONEWEB-0573             
1 55152U 23004N   25036.80549323  .00000257  00000+0  61950-3 0  9994
2 55152  87.9055  74.2623 0002674  81.1746 278.9688 13.18686255104271
